OBJECT_NAME,OBJECT_ID,EPOCH,MEAN_MOTION,ECCENTRICITY,INCLINATION,RA_OF_ASC_NODE,ARG_OF_PERICENTER,MEAN_ANOMALY,EPHEMERIS_TYPE,CLASSIFICATION_TYPE,NORAD_CAT_ID,ELEMENT_SET_NO,REV_AT_EPOCH,BSTAR,MEAN_MOTION_DOT,MEAN_MOTION_DDOT
SIRION PATHFINDER-2,2018-099B,2026-06-08T01:32:18.946752,15.14472143,.0007877,97.4257,208.3390,341.7112,18.3836,0,U,43759,999,41124,.30221E-3,.5499E-4,0
CORVUS BC4,2018-099K,2026-06-08T01:23:59.144352,15.12424623,.0009173,97.4070,202.3062,42.4404,317.7535,0,U,43767,999,41102,.31238E-3,.5369E-4,0
M2 PATHFINDER,2020-037E,2026-06-08T00:03:45.833184,15.04638324,.0011604,97.8161,350.1310,177.3057,182.8233,0,U,45727,999,32411,.22564E-3,.3111E-4,0
NETSAT-4,2020-068U,2026-06-07T23:38:32.970048,15.43561096,.0005056,97.8613,166.4883,15.4925,344.6476,0,U,46504,999,31435,.42126E-3,.18852E-3,0
NETSAT-3,2020-068V,2026-06-07T23:37:21.017856,15.42363292,.0005503,97.8661,164.7158,33.0816,327.0773,0,U,46505,999,31426,.444E-3,.19094E-3,0
NETSAT-1,2020-068W,2026-06-07T22:35:11.639616,15.34424602,.0006063,97.8751,159.1088,58.2539,301.9293,0,U,46506,999,31388,.41285E-3,.13693E-3,0
NETSAT-2,2020-068X,2026-06-07T23:20:55.091040,15.45603022,.0004698,97.8623,166.3369,51.1192,309.0474,0,U,46507,999,31431,.51519E-3,.2475E-3,0
GREENCUBE (IO-117),2022-080E,2026-06-01T11:09:37.753056,6.42583280,.00088692,70.1435,303.7143,293.3663,66.6064,0,U,53109,999,9105,0,-.3E-7,0
SITRO-AIS 5 (KATYS),2023-091L,2026-06-08T02:32:54.523104,15.29248526,.0012682,97.5062,222.9206,131.4729,228.7602,0,U,57176,999,16295,.46396E-3,.13129E-3,0
SITRO-AIS 6 (CHIRKIN),2023-091AC,2026-06-08T03:07:01.192224,15.25763522,.0012916,97.5069,222.1114,134.5217,225.7078,0,U,57192,999,16290,.44742E-3,.11382E-3,0
SITRO-AIS 8 (ANOKHIN),2023-091AD,2026-06-08T03:20:07.122912,15.31886167,.0011827,97.5058,224.5056,127.6007,232.6310,0,U,57193,999,16306,.38369E-3,.11763E-3,0
SITRO-AIS 7 (FARTUSHNIY),2023-091AE,2026-06-08T03:08:54.108384,15.25455046,.0012759,97.5067,221.9422,135.4137,224.8129,0,U,57194,999,16289,.42773E-3,.10776E-3,0
SITRO-AIS 10 (BURDAEV),2023-091AK,2026-06-08T03:26:17.841120,15.38265176,.0007941,97.5081,229.4717,106.7943,253.4173,0,U,57199,999,16337,.47262E-3,.17772E-3,0
SITRO-AIS 9 (SHCHUKIN),2023-091AM,2026-06-08T00:52:49.064736,15.37787207,.0008162,97.5079,229.0996,107.2841,252.9297,0,U,57201,999,16334,.54479E-3,.20191E-3,0
SITRO-AIS 12 (SMIRENNIY),2023-091AQ,2026-06-08T03:49:09.967296,15.38078708,.0007778,97.5092,229.6864,101.7982,258.4135,0,U,57204,999,16338,.45308E-3,.16928E-3,0
SITRO-AIS 11 (SHEFFER),2023-091AU,2026-06-08T02:38:23.451360,15.38496668,.0007665,97.5090,229.8770,102.0159,258.1946,0,U,57208,999,16339,.55216E-3,.20941E-3,0
SITRO-AIS 25,2024-039R,2026-06-08T04:44:00.373920,14.93466802,.0144625,95.3910,228.9150,0.3665,359.7640,0,U,59066,999,12338,.31283E-3,.4008E-4,0
SITRO-AIS 26,2024-039S,2026-06-08T04:44:13.275168,14.93263732,.0144993,95.3911,228.8146,0.9408,359.2061,0,U,59067,999,12337,.31265E-3,.3987E-4,0
SITRO-AIS 27,2024-039T,2026-06-08T04:04:59.560320,14.93681660,.0144055,95.3911,229.0634,359.6625,0.4479,0,U,59068,999,12339,.26478E-3,.3401E-4,0
SITRO-AIS 28,2024-039U,2026-06-08T05:09:16.342272,14.93717974,.0143897,95.3915,229.1409,359.4131,0.6902,0,U,59071,999,12340,.32593E-3,.4197E-4,0
GRBBETA,2024-128C,2026-06-07T19:05:36.987072,15.06577038,.004191,61.9897,249.2153,132.7105,227.7529,0,U,60237,999,10485,.33997E-3,.4941E-4,0
OOV-CUBE (TUBSAT-30),2024-128F,2026-06-08T00:08:43.584000,15.02735598,.0045783,61.9951,257.5861,131.6812,228.8211,0,U,60240,999,10473,.23033E-3,.2948E-4,0
ROBUSTA-3A (MEDITERRANEE),2024-128J,2026-06-07T22:33:44.106048,15.11566306,.0042507,61.9858,240.9422,126.1786,234.3253,0,U,60243,999,10502,.48496E-3,.8231E-4,0
LASARSAT,2024-247Q,2026-06-07T20:47:16.154880,15.45786656,.0008333,44.9755,314.5710,280.1166,79.8784,0,U,62391,999,8187,.69568E-3,.34284E-3,0
CROCUBE,2024-247T,2026-06-08T03:12:00.544896,15.47614450,.0008191,44.9729,310.5486,284.7538,75.2445,0,U,62394,999,8194,.75042E-3,.39469E-3,0
FORESAIL-1 PRIME,2025-276DS,2026-06-07T16:56:49.643232,15.18616677,.0003684,97.4198,232.1512,123.1787,236.9801,0,U,66778,999,2896,.26506E-3,.5419E-4,0
KNACKSAT-2,1998-067XZ,2026-06-07T19:16:13.946880,15.59121118,.0010362,51.6303,341.6515,174.2130,185.8984,0,U,67683,999,1881,.61258E-3,.48726E-3,0
